ONEWEB-0205             
1 48226U 21031S   26145.91137215 -.00000144  00000+0 -42339-3 0  9990
2 48226  87.8949 294.1374 0001761 107.0839 253.0484 13.14503611245341
ONEWEB-0206             
1 48227U 21031T   26146.11276403 -.00000029  00000+0 -11355-3 0  9993
2 48227  87.8949 294.0996 0001865  92.3530 267.7814 13.14502367245324
ONEWEB-0182             
1 48228U 21031U   26146.10799386  .00000089  00000+0  20511-3 0  9991
2 48228  87.8945 294.1089 0002056  98.9294 261.2069 13.14501516245536
ONEWEB-0186             
1 48229U 21031V   26146.11908930 -.00000096  00000+0 -29445-3 0  9995
2 48229  87.8950 294.0959 0001823 101.3600 258.7735 13.14501108245481
ONEWEB-0181             
1 48230U 21031W   26145.94466997  .00000177  00000+0  44312-3 0  9997
2 48230  87.8934 294.1636 0001695 103.5355 256.5964 13.14501807245314
ONEWEB-0188             
1 48231U 21031X   26146.13496768 -.00000169  00000+0 -48937-3 0  9999
2 48231  87.8935 294.1242 0001856  99.8688 260.2651 13.14503124245245
ONEWEB-0220             
1 48232U 21031Y   26145.94625181  .00000204  00000+0  51681-3 0  9999
2 48232  87.8951 294.1318 0001896 104.5759 255.5581 13.14501159245486
ONEWEB-0165             
1 48233U 21031Z   26146.12702743 -.00000174  00000+0 -50443-3 0  9994
2 48233  87.8944 294.1099 0001520 104.4053 255.7245 13.14502105245464
ONEWEB-0199             
1 48234U 21031AA  26146.11117243  .00000065  00000+0  14094-3 0  9998
2 48234  87.8952 294.0978 0001919  92.9711 267.1639 13.14501924245364
ONEWEB-0203             
1 48235U 21031AB  26145.94941662  .00000081  00000+0  18434-3 0  9999
2 48235  87.8956 294.1336 0001695  94.5768 265.5555 13.14500792245359
ONEWEB-0197             
1 48236U 21031AC  26146.30451024  .00000152  00000+0  37517-3 0  9991
2 48236  87.8938 294.0509 0002079 102.5826 257.5536 13.14502768245314
ONEWEB-0194             
1 48237U 21031AD  26146.13177586 -.00000181  00000+0 -52349-3 0  9995
2 48237  87.8944 294.1063 0001804  90.7619 269.3717 13.14501326245468
ONEWEB-0193             
1 48238U 21031AE  26146.14763778 -.00000021  00000+0 -90190-4 0  9991
2 48238  87.8943 294.0941 0001829  84.1381 275.9957 13.14501591245410
ONEWEB-0191             
1 48239U 21031AF  26146.31098066  .00000172  00000+0  43059-3 0  9998
2 48239  87.8946 294.0586 0002012  98.7198 261.4159 13.14501215245294
ONEWEB-0195             
1 48240U 21031AG  26145.90738778 -.00000164  00000+0 -47570-3 0  9990
2 48240  87.8953 294.1400 0001515 108.1164 252.0131 13.14504729245228
ONEWEB-0201             
1 48241U 21031AH  26146.12400183 -.00000142  00000+0 -41885-3 0  9991
2 48241  87.8942 294.1144 0002058 104.0055 256.1303 13.14503686245484
