[{"OBJECT_NAME":"ONEWEB-0205","OBJECT_ID":"2021-031S","EPOCH":"2026-05-25T21:52:22.553760","MEAN_MOTION":13.14503611,"ECCENTRICITY":0.0001761,"INCLINATION":87.8949,"RA_OF_ASC_NODE":294.1374,"ARG_OF_PERICENTER":107.0839,"MEAN_ANOMALY":253.0484,"EPHEMERIS_TYPE":0,"CLASSIFICATION_TYPE":"U","NORAD_CAT_ID":48226,"ELEMENT_SET_NO":999,"REV_AT_EPOCH":24534,"BSTAR":-0.00042339,"MEAN_MOTION_DOT":-1.44e-06,"MEAN_MOTION_DDOT":0.0},{"OBJECT_NAME":"ONEWEB-0206","OBJECT_ID":"2021-031T","EPOCH":"2026-05-26T02:42:22.812192","MEAN_MOTION":13.14502367,"ECCENTRICITY":0.0001865,"INCLINATION":87.8949,"RA_OF_ASC_NODE":294.0996,"ARG_OF_PERICENTER":92.353,"MEAN_ANOMALY":267.7814,"EPHEMERIS_TYPE":0,"CLASSIFICATION_TYPE":"U","NORAD_CAT_ID":48227,"ELEMENT_SET_NO":999,"REV_AT_EPOCH":24532,"BSTAR":-0.00011355,"MEAN_MOTION_DOT":-2.9e-07,"MEAN_MOTION_DDOT":0.0},{"OBJECT_NAME":"ONEWEB-0182","OBJECT_ID":"2021-031U","EPOCH":"2026-05-26T02:35:30.669504","MEAN_MOTION":13.14501516,"ECCENTRICITY":0.0002056,"INCLINATION":87.8945,"RA_OF_ASC_NODE":294.1089,"ARG_OF_PERICENTER":98.9294,"MEAN_ANOMALY":261.2069,"EPHEMERIS_TYPE":0,"CLASSIFICATION_TYPE":"U","NORAD_CAT_ID":48228,"ELEMENT_SET_NO":999,"REV_AT_EPOCH":24553,"BSTAR":0.00020511,"MEAN_MOTION_DOT":8.9e-07,"MEAN_MOTION_DDOT":0.0},{"OBJECT_NAME":"ONEWEB-0186","OBJECT_ID":"2021-031V","EPOCH":"2026-05-26T02:51:29.315520","MEAN_MOTION":13.14501108,"ECCENTRICITY":0.0001823,"INCLINATION":87.895,"RA_OF_ASC_NODE":294.0959,"ARG_OF_PERICENTER":101.36,"MEAN_ANOMALY":258.7735,"EPHEMERIS_TYPE":0,"CLASSIFICATION_TYPE":"U","NORAD_CAT_ID":48229,"ELEMENT_SET_NO":999,"REV_AT_EPOCH":24548,"BSTAR":-0.00029445,"MEAN_MOTION_DOT":-9.6e-07,"MEAN_MOTION_DDOT":0.0},{"OBJECT_NAME":"ONEWEB-0181","OBJECT_ID":"2021-031W","EPOCH":"2026-05-25T22:40:19.485408","MEAN_MOTION":13.14501807,"ECCENTRICITY":0.0001695,"INCLINATION":87.8934,"RA_OF_ASC_NODE":294.1636,"ARG_OF_PERICENTER":103.5355,"MEAN_ANOMALY":256.5964,"EPHEMERIS_TYPE":0,"CLASSIFICATION_TYPE":"U","NORAD_CAT_ID":48230,"ELEMENT_SET_NO":999,"REV_AT_EPOCH":24531,"BSTAR":0.00044312,"MEAN_MOTION_DOT":1.77e-06,"MEAN_MOTION_DDOT":0.0},{"OBJECT_NAME":"ONEWEB-0188","OBJECT_ID":"2021-031X","EPOCH":"2026-05-26T03:14:21.207552","MEAN_MOTION":13.14503124,"ECCENTRICITY":0.0001856,"INCLINATION":87.8935,"RA_OF_ASC_NODE":294.1242,"ARG_OF_PERICENTER":99.8688,"MEAN_ANOMALY":260.2651,"EPHEMERIS_TYPE":0,"CLASSIFICATION_TYPE":"U","NORAD_CAT_ID":48231,"ELEMENT_SET_NO":999,"REV_AT_EPOCH":24524,"BSTAR":-0.00048937,"MEAN_MOTION_DOT":-1.69e-06,"MEAN_MOTION_DDOT":0.0},{"OBJECT_NAME":"ONEWEB-0220","OBJECT_ID":"2021-031Y","EPOCH":"2026-05-25T22:42:36.156384","MEAN_MOTION":13.14501159,"ECCENTRICITY":0.0001896,"INCLINATION":87.8951,"RA_OF_ASC_NODE":294.1318,"ARG_OF_PERICENTER":104.5759,"MEAN_ANOMALY":255.5581,"EPHEMERIS_TYPE":0,"CLASSIFICATION_TYPE":"U","NORAD_CAT_ID":48232,"ELEMENT_SET_NO":999,"REV_AT_EPOCH":24548,"BSTAR":0.00051681,"MEAN_MOTION_DOT":2.04e-06,"MEAN_MOTION_DDOT":0.0},{"OBJECT_NAME":"ONEWEB-0165","OBJECT_ID":"2021-031Z","EPOCH":"2026-05-26T03:02:55.169952","MEAN_MOTION":13.14502105,"ECCENTRICITY":0.000152,"INCLINATION":87.8944,"RA_OF_ASC_NODE":294.1099,"ARG_OF_PERICENTER":104.4053,"MEAN_ANOMALY":255.7245,"EPHEMERIS_TYPE":0,"CLASSIFICATION_TYPE":"U","NORAD_CAT_ID":48233,"ELEMENT_SET_NO":999,"REV_AT_EPOCH":24546,"BSTAR":-0.00050443,"MEAN_MOTION_DOT":-1.74e-06,"MEAN_MOTION_DDOT":0.0},{"OBJECT_NAME":"ONEWEB-0199","OBJECT_ID":"2021-031AA","EPOCH":"2026-05-26T02:40:05.297952","MEAN_MOTION":13.14501924,"ECCENTRICITY":0.0001919,"INCLINATION":87.8952,"RA_OF_ASC_NODE":294.0978,"ARG_OF_PERICENTER":92.9711,"MEAN_ANOMALY":267.1639,"EPHEMERIS_TYPE":0,"CLASSIFICATION_TYPE":"U","NORAD_CAT_ID":48234,"ELEMENT_SET_NO":999,"REV_AT_EPOCH":24536,"BSTAR":0.00014094000000000002,"MEAN_MOTION_DOT":6.5e-07,"MEAN_MOTION_DDOT":0.0},{"OBJECT_NAME":"ONEWEB-0203","OBJECT_ID":"2021-031AB","EPOCH":"2026-05-25T22:47:09.595968","MEAN_MOTION":13.14500792,"ECCENTRICITY":0.0001695,"INCLINATION":87.8956,"RA_OF_ASC_NODE":294.1336,"ARG_OF_PERICENTER":94.5768,"MEAN_ANOMALY":265.5555,"EPHEMERIS_TYPE":0,"CLASSIFICATION_TYPE":"U","NORAD_CAT_ID":48235,"ELEMENT_SET_NO":999,"REV_AT_EPOCH":24535,"BSTAR":0.00018434000000000001,"MEAN_MOTION_DOT":8.1e-07,"MEAN_MOTION_DDOT":0.0},{"OBJECT_NAME":"ONEWEB-0197","OBJECT_ID":"2021-031AC","EPOCH":"2026-05-26T07:18:29.684736","MEAN_MOTION":13.14502768,"ECCENTRICITY":0.0002079,"INCLINATION":87.8938,"RA_OF_ASC_NODE":294.0509,"ARG_OF_PERICENTER":102.5826,"MEAN_ANOMALY":257.5536,"EPHEMERIS_TYPE":0,"CLASSIFICATION_TYPE":"U","NORAD_CAT_ID":48236,"ELEMENT_SET_NO":999,"REV_AT_EPOCH":24531,"BSTAR":0.00037517000000000003,"MEAN_MOTION_DOT":1.52e-06,"MEAN_MOTION_DDOT":0.0},{"OBJECT_NAME":"ONEWEB-0194","OBJECT_ID":"2021-031AD","EPOCH":"2026-05-26T03:09:45.434304","MEAN_MOTION":13.14501326,"ECCENTRICITY":0.0001804,"INCLINATION":87.8944,"RA_OF_ASC_NODE":294.1063,"ARG_OF_PERICENTER":90.7619,"MEAN_ANOMALY":269.3717,"EPHEMERIS_TYPE":0,"CLASSIFICATION_TYPE":"U","NORAD_CAT_ID":48237,"ELEMENT_SET_NO":999,"REV_AT_EPOCH":24546,"BSTAR":-0.00052349,"MEAN_MOTION_DOT":-1.81e-06,"MEAN_MOTION_DDOT":0.0},{"OBJECT_NAME":"ONEWEB-0193","OBJECT_ID":"2021-031AE","EPOCH":"2026-05-26T03:32:35.904192","MEAN_MOTION":13.14501591,"ECCENTRICITY":0.0001829,"INCLINATION":87.8943,"RA_OF_ASC_NODE":294.0941,"ARG_OF_PERICENTER":84.1381,"MEAN_ANOMALY":275.9957,"EPHEMERIS_TYPE":0,"CLASSIFICATION_TYPE":"U","NORAD_CAT_ID":48238,"ELEMENT_SET_NO":999,"REV_AT_EPOCH":24541,"BSTAR":-9.019e-05,"MEAN_MOTION_DOT":-2.1e-07,"MEAN_MOTION_DDOT":0.0},{"OBJECT_NAME":"ONEWEB-0191","OBJECT_ID":"2021-031AF","EPOCH":"2026-05-26T07:27:48.729024","MEAN_MOTION":13.14501215,"ECCENTRICITY":0.0002012,"INCLINATION":87.8946,"RA_OF_ASC_NODE":294.0586,"ARG_OF_PERICENTER":98.7198,"MEAN_ANOMALY":261.4159,"EPHEMERIS_TYPE":0,"CLASSIFICATION_TYPE":"U","NORAD_CAT_ID":48239,"ELEMENT_SET_NO":999,"REV_AT_EPOCH":24529,"BSTAR":0.00043058999999999995,"MEAN_MOTION_DOT":1.72e-06,"MEAN_MOTION_DDOT":0.0},{"OBJECT_NAME":"ONEWEB-0195","OBJECT_ID":"2021-031AG","EPOCH":"2026-05-25T21:46:38.304192","MEAN_MOTION":13.14504729,"ECCENTRICITY":0.0001515,"INCLINATION":87.8953,"RA_OF_ASC_NODE":294.14,"ARG_OF_PERICENTER":108.1164,"MEAN_ANOMALY":252.0131,"EPHEMERIS_TYPE":0,"CLASSIFICATION_TYPE":"U","NORAD_CAT_ID":48240,"ELEMENT_SET_NO":999,"REV_AT_EPOCH":24522,"BSTAR":-0.0004757,"MEAN_MOTION_DOT":-1.64e-06,"MEAN_MOTION_DDOT":0.0},{"OBJECT_NAME":"ONEWEB-0201","OBJECT_ID":"2021-031AH","EPOCH":"2026-05-26T02:58:33.758112","MEAN_MOTION":13.14503686,"ECCENTRICITY":0.0002058,"INCLINATION":87.8942,"RA_OF_ASC_NODE":294.1144,"ARG_OF_PERICENTER":104.0055,"MEAN_ANOMALY":256.1303,"EPHEMERIS_TYPE":0,"CLASSIFICATION_TYPE":"U","NORAD_CAT_ID":48241,"ELEMENT_SET_NO":999,"REV_AT_EPOCH":24548,"BSTAR":-0.00041885,"MEAN_MOTION_DOT":-1.42e-06,"MEAN_MOTION_DDOT":0.0}]